{
  "norad_id": 63739,
  "name": "KUIPER-00025",
  "history": [
    {
      "epoch": "2026-05-05T14:47:30.702048Z",
      "apogee_km": 629.6527891831838,
      "perigee_km": 629.0515466125789,
      "latitude_deg": -3.235997296041308e-05,
      "longitude_deg": 123.51289586405817,
      "height_km": 629.953983398121,
      "semi_major_axis_km": 7007.489167897881,
      "eccentricity": 4.29e-05,
      "inclination_deg": 51.9029,
      "raan_deg": 208.8796,
      "arg_perigee_deg": 61.2077,
      "mean_anomaly_deg": 298.8928,
      "mean_motion_rev_day": 14.79991119
    }
  ]
}